NAYIF-1 (EO-88)         
1 42017U 17008BX  23088.72418184  .00119618  00000+0  16530-2 0  9998
2 42017  97.2226 157.9062 0002673 265.3526  94.7424 15.56737659341025
ZHUHAI-1 02 (CAS-4B)    
1 42759U 17034B   23088.79233962  .00015161  00000+0  78763-3 0  9991
2 42759  43.0164 196.5599 0011838 307.8750 189.9160 15.15847168319588
ZHUHAI-1 01 (CAS-4A)    
1 42761U 17034D   23088.81162557  .00014173  00000+0  73552-3 0  9991
2 42761  43.0167 195.0110 0012356 306.7274 197.8299 15.15921532319592
MAX VALIER SAT          
1 42778U 17036P   23088.87060760  .00030079  00000+0  88335-3 0  9998
2 42778  97.1685 125.7454 0009318  41.9650 318.2306 15.35043805320541
RADFXSAT (FOX-1B)       
1 43017U 17073E   23088.63747858  .00013484  00000+0  95917-3 0  9995
2 43017  97.6420 336.1306 0236458 332.1205  26.7501 14.84903527289374
FOX-1D (AO-92)          
1 43137U 18004AC  23088.70802359  .00043076  00000+0  10649-2 0  9997
2 43137  97.3337 167.3518 0006554  76.3746 283.8230 15.40326579290050
DIWATA-2B               
1 43678U 18084H   23088.91866346  .00003023  00000+0  29550-3 0  9994
2 43678  98.0075 231.3661 0010719  65.8650 294.3667 14.93098780240438
ES'HAIL 2               
1 43700U 18090A   23088.86552701  .00000137  00000+0  00000+0 0  9996
2 43700   0.0177 168.0501 0001102 193.8641 162.4486  1.00272172 15894
FOX-1CLIFF (AO-95)      
1 43770U 18099N   23088.14425518  .00007240  00000+0  60228-3 0  9992
2 43770  97.5825 151.8552 0014529  43.6798 316.5572 14.98901337235615
ITASAT 1                
1 43786U 18099AE  23088.73320795  .00008237  00000+0  68747-3 0  9996
2 43786  97.5855 153.4589 0015253  38.1450 322.0850 14.98721179235741
JY1SAT (JO-97)          
1 43803U 18099AX  23088.75120495  .00008775  00000+0  71207-3 0  9995
2 43803  97.5805 153.4007 0014339  27.7727 332.4259 14.99800135235789
UWE-4                   
1 43880U 18111E   23088.73100221  .00010573  00000+0  82753-3 0  9995
2 43880  97.6451 355.1727 0018328  82.6814 277.6493 15.01081941232441
NEXUS (FO-99)           
1 43937U 19003F   23088.88830741  .00058641  00000+0  12563-2 0  9991
2 43937  97.0989 117.5015 0015217 196.6023 163.4730 15.44446345233779
JAISAT-1                
1 44419U 19038F   23088.67886149  .00034327  00000+0  13226-2 0  9997
2 44419  97.6704  68.0128 0014073 211.3602 148.6797 15.26172139206391
DUCHIFAT-3              
1 44854U 19089C   23088.71097039  .00013815  00000+0  96290-3 0  9995
2 44854  36.9649 205.7892 0008599  28.0049  82.0700 15.04800759180859
CAS-6 (TIANQIN 1)       
1 44881U 19093C   23088.91951599  .00002052  00000+0  26290-3 0  9996
2 44881  97.8644 168.7195 0014400 341.8954  18.1705 14.82321574177054
RS-44 & BREEZE-KM R/B   
1 44909U 19096E   23088.86826647  .00000040  00000+0  11454-3 0  9990
2 44909  82.5238  40.6420 0217867  12.7318 347.9163 12.79719546152018
HUSKYSAT-1 (HO-107)     
1 45119U 19071J   23088.35733688  .00672324  19939-3  17244-2 0  9990
2 45119  51.6226  74.3470 0008691  99.5104 260.6886 15.94622185177735
BY70-2                  
1 45857U 20042B   23088.37104743  .00030347  00000+0  33719-2 0  9998
2 45857  97.9286 168.1853 0008558 254.8907 105.1339 14.87090632147661
SALSAT                  
1 46495U 20068K   23088.85925105  .00009258  00000+0  62280-3 0  9994
2 46495  97.7623  36.1094 0016955  35.1331 325.1010 15.06848479137127
BY70-3                  
1 46839U 20079N   23088.90153654  .00809272  29386-3  19103-2 0  9997
2 46839  97.1452 166.5158 0007739 264.8590 215.5697 15.96803393134563
RADFXSAT-2 (AO-109)     
1 47311U 21002C   23088.22419035  .00035537  00000+0  10442-2 0  9993
2 47311  60.6839   4.9759 0030018 132.2444 228.1203 15.34478206121996
UVSQ-SAT                
1 47438U 21006AB  23088.73708886  .00021559  00000+0  95117-3 0  9990
2 47438  97.3946 147.0942 0009851  10.0925 350.0507 15.21745092120552
DIY-1 (ARDUIQUBE)       
1 47963U 21022AH  23088.70014983  .00125971  00000+0  34225-2 0  9991
2 47963  97.5053 354.3299 0008464 193.2703 166.8320 15.37037251110295
XW-3 (CAS-9)            
1 50466U 21131B   23088.89491900  .00001446  00000+0  48482-3 0  9993
2 50466  98.5537 170.6895 0004628  34.2192 325.9293 14.38788563 65958
TEVEL-3                 
1 50988U 22002E   23088.99380964  .00027261  00000+0  12011-2 0  9999
2 50988  97.4411 156.6545 0009735 152.7530 332.0630 15.21743625 66709
TEVEL-8                 
1 50989U 22002F   23088.95240080  .00027630  00000+0  12197-2 0  9995
2 50989  97.4410 156.6612 0008877 149.8462  23.4615 15.21683011 66695
TEVEL-5                 
1 50998U 22002Q   23088.84068008  .00028848  00000+0  12445-2 0  9999
2 50998  97.4411 156.8017 0011636 145.8554 306.7286 15.22433513 66706
TEVEL-6                 
1 50999U 22002R   23088.97694649  .00027497  00000+0  11866-2 0  9995
2 50999  97.4386 156.9343 0011020 142.7365 343.7790 15.22438219 66725
TEVEL-1                 
1 51013U 22002AF  23089.00100988  .00027434  00000+0  12100-2 0  9999
2 51013  97.4411 156.6159 0009613 151.2971 331.2357 15.21708047 66704
TEVEL-7                 
1 51062U 22002CG  23088.95407883  .00027591  00000+0  12174-2 0  9995
2 51062  97.4423 156.6423 0009630 150.2470  22.8260 15.21692506 66693
TEVEL-4                 
1 51063U 22002CH  23088.94184103  .00027370  00000+0  12092-2 0  9996
2 51063  97.4426 156.6180 0009585 150.7189 294.9279 15.21653129 66698
TEVEL-2                 
1 51069U 22002CP  23088.86147249  .00027592  00000+0  12158-2 0  9992
2 51069  97.4409 156.5008 0009983 150.7500 319.3035 15.21738713 66686
GREENCUBE               
1 53106U 22080B   23088.05176028 -.00000003  00000+0  00000+0 0  9999
2 53106  70.1795 347.5677 0008286 204.3079 155.7190  6.42557135 16603
RS29S (SXC3-2110 CYCLO*)
1 53373U 22096D   23088.83034706  .00037503  00000+0  11476-2 0  9990
2 53373  97.4213 354.4827 0003800  76.0379 359.4798 15.33732874 35506
RS32S (SXC3-212 MONITO*)
1 53374U 22096E   23088.82538781  .00034096  00000+0  10547-2 0  9994
2 53374  97.4189 354.4553 0004059  70.6812 330.3131 15.33410901 35507
RS34S (SXC3-218 KUZBAS*)
1 53375U 22096F   23088.96166843  .00028136  00000+0  90738-3 0  9995
2 53375  97.4200 354.4525 0003870  69.9748 346.3881 15.32117129 35515
RS23S (SXC3-21 UTMN)    
1 53376U 22096G   23088.95676841  .00030667  00000+0  97595-3 0  9999
2 53376  97.4205 354.4878 0003731  80.1629  49.2331 15.32525439 35517
RS28S (SXC3-214 MIET-A*)
1 53377U 22096H   23088.90660153  .00027670  00000+0  89495-3 0  9994
2 53377  97.4216 354.4089 0003798  75.4521  53.4401 15.32027750 35502
RS26S (KAI-1)           
1 53378U 22096J   23088.87141014  .00023961  00000+0  79760-3 0  9994
2 53378  97.4215 354.2783 0003429  72.9454 352.2207 15.31130729 35491
RS19S (SXC3-219 ISOI)   
1 53381U 22096M   23088.95918806  .00029736  00000+0  93956-3 0  9997
2 53381  97.4199 354.6338 0004124  21.8141 108.8598 15.32759806 35521
RS21S (CUBESX-HSE-2)    
1 53383U 22096P   23088.94803583  .00029933  00000+0  94077-3 0  9997
2 53383  97.4202 354.6563 0004256  19.9790 110.7412 15.32929050 35529
RS30S (SXC3-217 SIREN)  
1 53384U 22096Q   23088.97035016  .00025139  00000+0  81181-3 0  9995
2 53384  97.4212 354.6004 0004636  16.1473  44.0586 15.32094093 35521
RS20S (GEOSCAN-EDELVEIS)
1 53385U 22096R   23088.94686631  .00038586  00000+0  11302-2 0  9995
2 53385  97.4178 354.9493 0004576  17.9769 110.7822 15.35108098 35571
RS33S (SXC3-215 VIZARD) 
1 53386U 22096S   23088.86986350  .00048059  00000+0  13144-2 0  9990
2 53386  97.4190 355.1757 0005147  17.1475  48.0397 15.37199283 35571
CAS-5A (FO-118)         
1 54684U 22167C   23088.99408667  .00019024  00000+0  11117-2 0  9993
2 54684  97.5485 227.2902 0013849 246.4343 183.3437 15.11855958 16703
